H1 CPF  1  HTS 2022  6  5 12  6561 larets           NONE
H2  0304206 5557    27944 2022 06 05  0  0  0 2022 06 10  0  0  0   180 1 1  0 0 0
H5  0.0560 
H9 
10 0 59738  33480.00000  0    2228205.448    4627599.675   -4855517.380
10 0 59738  33660.00000  0    2079917.432    3586398.524   -5722799.519
10 0 59738  33840.00000  0    1827353.111    2420603.876   -6381364.157
10 0 59738  34020.00000  0    1477008.763    1175123.782   -6807305.475
10 0 59738  34200.00000  0    1040106.064    -102538.435   -6985142.160
10 0 59738  34380.00000  0     532237.216   -1364083.907   -6908346.297
10 0 59738  34560.00000  0     -27185.009   -2562221.442   -6579570.106
10 0 59738  34740.00000  0    -615653.104   -3652418.151   -6010577.254
10 0 59738  34920.00000  0   -1208450.717   -4594556.618   -5221871.093
10 0 59738  35100.00000  0   -1779668.467   -5354438.909   -4242017.644
10 0 59738  35280.00000  0   -2303318.427   -5905084.943   -3106668.672
10 0 59738  35460.00000  0   -2754500.361   -6227762.116   -1857300.019
10 0 59738  35640.00000  0   -3110565.140   -6312694.774    -539701.884
10 0 59738  35820.00000  0   -3352216.141   -6159408.236     797731.152
10 0 59738  36000.00000  0   -3464484.967   -5776675.381    2105835.997
10 0 59738  36180.00000  0   -3437526.963   -5182065.961    3336554.667
10 0 59738  36360.00000  0   -3267192.697   -4401124.263    4444754.480
10 0 59738  36540.00000  0   -2955348.522   -3466226.140    5389912.345
10 0 59738  36720.00000  0   -2509934.703   -2415179.011    6137593.075
10 0 59738  36900.00000  0   -1944761.610   -1289644.825    6660670.510
10 0 59738  37080.00000  0   -1279058.778    -133458.655    6940264.129
10 0 59738  37260.00000  0    -536799.430    1009089.971    6966362.987
10 0 59738  37440.00000  0     254167.989    2094942.465    6738143.193
10 0 59738  37620.00000  0    1063161.608    3083879.943    6263979.214
10 0 59738  37800.00000  0    1857845.870    3940001.263    5561146.602
10 0 59738  37980.00000  0    2605510.609    4633029.685    4655226.209
10 0 59738  38160.00000  0    3274409.958    5139404.370    3579213.940
10 0 59738  38340.00000  0    3835106.664    5443112.386    2372357.352
10 0 59738  38520.00000  0    4261770.686    5536230.433    1078740.965
10 0 59738  38700.00000  0    4533356.851    5419132.479    -254334.077
10 0 59738  38880.00000  0    4634605.036    5100355.331   -1578108.791
10 0 59738  39060.00000  0    4556810.359    4596120.926   -2844184.926
10 0 59738  39240.00000  0    4298322.837    3929547.975   -4006326.514
10 0 59738  39420.00000  0    3864748.600    3129591.427   -5022165.607
10 0 59738  39600.00000  0    3268850.183    2229768.626   -5854738.776
10 0 59738  39780.00000  0    2530154.674    1266738.362   -6473802.252
10 0 59738  39960.00000  0    1674290.866     278799.862   -6856882.909
10 0 59738  40140.00000  0     732090.792    -695621.786   -6990045.458
10 0 59738  40320.00000  0    -261516.506   -1619453.966   -6868370.492
10 0 59738  40500.00000  0   -1268783.272   -2458367.997   -6496129.337
10 0 59738  40680.00000  0   -2250555.819   -3182045.713   -5886662.238
10 0 59738  40860.00000  0   -3167780.858   -3765284.093   -5061951.147
10 0 59738  41040.00000  0   -3983061.680   -4188902.735   -4051892.366
10 0 59738  41220.00000  0   -4662206.938   -4440415.990   -2893266.291
10 0 59738  41400.00000  0   -5175701.179   -4514434.443   -1628428.391
10 0 59738  41580.00000  0   -5500025.646   -4412770.509    -303757.969
10 0 59738  41760.00000  0   -5618757.023   -4144236.385    1032077.132
10 0 59738  41940.00000  0   -5523380.064   -3724139.279    2329969.258
10 0 59738  42120.00000  0   -5213761.364   -3173493.429    3542244.191
10 0 59738  42300.00000  0   -4698262.041   -2517996.500    4624463.940
10 0 59738  42480.00000  0   -3993487.817   -1786828.252    5537080.316
10 0 59738  42660.00000  0   -3123700.147   -1011340.853    6246867.263
10 0 59738  42840.00000  0   -2119926.751    -223706.900    6728096.351
10 0 59738  43020.00000  0   -1018806.001     544418.572    6963417.302
10 0 59738  43200.00000  0     138774.742    1263158.745    6944426.822
10 0 59738  43380.00000  0    1309196.945    1905562.907    6671932.982
10 0 59738  43560.00000  0    2447742.622    2448606.508    6155910.166
10 0 59738  43740.00000  0    3510288.394    2874009.784    5415149.828
10 0 59738  43920.00000  0    4455012.608    3168854.868    4476613.103
10 0 59738  44100.00000  0    5244051.822    3325980.227    3374491.862
10 0 59738  44280.00000  0    5845051.242    3344136.376    2148998.210
10 0 59738  44460.00000  0    6232527.523    3227888.940     844907.290
10 0 59738  44640.00000  0    6388978.834    2987275.738    -490089.927
10 0 59738  44820.00000  0    6305679.276    2637225.643   -1807163.489
10 0 59738  45000.00000  0    5983113.514    2196771.543   -3058165.281
10 0 59738  45180.00000  0    5431035.321    1688102.758   -4197419.631
10 0 59738  45360.00000  0    4668144.305    1135498.545   -5183406.487
10 0 59738  45540.00000  0    3721400.141     564203.156   -5980261.562
10 0 59738  45720.00000  0    2625022.314       -698.037   -6559043.803
10 0 59738  45900.00000  0    1419220.799    -535353.684   -6898738.882
10 0 59738  46080.00000  0     148714.267   -1018131.215   -6986977.720
10 0 59738  46260.00000  0   -1138917.573   -1430475.650   -6820460.466
10 0 59738  46440.00000  0   -2394992.454   -1757614.035   -6405080.336
10 0 59738  46620.00000  0   -3571545.550   -1989086.629   -5755744.971
10 0 59738  46800.00000  0   -4623154.765   -2119087.771   -4895897.110
10 0 59738  46980.00000  0   -5508721.269   -2146606.186   -3856733.080
10 0 59738  47160.00000  0   -6193129.889   -2075353.587   -2676122.387
10 0 59738  47340.00000  0   -6648714.166   -1913480.637   -1397252.161
10 0 59738  47520.00000  0   -6856447.861   -1673088.312     -67037.919
10 0 59738  47700.00000  0   -6806794.575   -1369555.671    1265638.991
10 0 59738  47880.00000  0   -6500161.090   -1020716.472    2551790.186
10 0 59738  48060.00000  0   -5946925.049    -645930.996    3744185.773
10 0 59738  48240.00000  0   -5167038.281    -265102.528    4799138.643
10 0 59738  48420.00000  0   -4189230.205     102306.359    5678122.611
10 0 59738  48600.00000  0   -3049871.720     438207.137    6349161.591
10 0 59738  48780.00000  0   -1791555.157     726723.964    6787952.966
10 0 59738  48960.00000  0    -461456.468     954901.012    6978694.256
10 0 59738  49140.00000  0     890449.931    1113255.178    6914598.999
10 0 59738  49320.00000  0    2213259.610    1196155.394    6598104.558
10 0 59738  49500.00000  0    3457036.980    1202018.362    6040774.704
10 0 59738  49680.00000  0    4574689.844    1133314.304    5262898.280
10 0 59738  49860.00000  0    5523756.881     996384.053    4292788.194
10 0 59738  50040.00000  0    6268051.681     801074.663    3165796.195
10 0 59738  50220.00000  0    6779091.624     560207.715    1923051.232
10 0 59738  50400.00000  0    7037240.669     288900.561     609967.512
10 0 59738  50580.00000  0    7032511.524       3773.856    -725429.656
10 0 59738  50760.00000  0    6764977.577    -277916.803   -2034294.185
10 0 59738  50940.00000  0    6244767.969    -539179.695   -3268784.620
10 0 59738  51120.00000  0    5491649.775    -764169.703   -4383841.001
10 0 59738  51300.00000  0    4534222.564    -939007.215   -5338837.947
10 0 59738  51480.00000  0    3408774.510   -1052491.977   -6099046.669
10 0 59738  51660.00000  0    2157860.487   -1096683.980   -6636860.584
10 0 59738  51840.00000  0     828667.010   -1067322.890   -6932749.218
10 0 59738  52020.00000  0    -528767.748    -964073.150   -6975924.872
10 0 59738  52200.00000  0   -1863419.857    -790586.328   -6764713.978
10 0 59738  52380.00000  0   -3125174.856    -554377.244   -6306627.697
10 0 59738  52560.00000  0   -4266692.970    -266516.649   -5618127.739
10 0 59738  52740.00000  0   -5245193.700      58850.146   -4724094.329
10 0 59738  52920.00000  0   -6024100.425     405143.938   -3656989.801
10 0 59738  53100.00000  0   -6574479.226     754130.457   -2455730.375
10 0 59738  53280.00000  0   -6876199.295    1086806.104   -1164286.456
10 0 59738  53460.00000  0   -6918750.424    1384347.430     169943.264
10 0 59738  53640.00000  0   -6701659.749    1629073.539    1497922.328
10 0 59738  53820.00000  0   -6234481.520    1805371.203    2770840.250
10 0 59738  54000.00000  0   -5536362.373    1900532.308    3941969.754
10 0 59738  54180.00000  0   -4635200.930    1905454.839    4968426.623
10 0 59738  54360.00000  0   -3566459.106    1815173.747    5812749.228
10 0 59738  54540.00000  0   -2371698.608    1629200.443    6444244.988
10 0 59738  54720.00000  0   -1096908.249    1351657.948    6840065.331
10 0 59738  54900.00000  0     209299.902     991206.289    6985974.103
10 0 59738  55080.00000  0    1497545.299     560766.120    6876807.226
10 0 59738  55260.00000  0    2719529.347      77051.854    6516627.945
10 0 59738  55440.00000  0    3829828.744    -440071.732    5918578.081
10 0 59738  55620.00000  0    4787579.955    -968390.700    5104424.258
10 0 59738  55800.00000  0    5557997.231   -1484274.534    4103805.023
10 0 59738  55980.00000  0    6113671.393   -1963705.490    2953192.479
10 0 59738  56160.00000  0    6435593.890   -2383364.011    1694588.843
10 0 59738  56340.00000  0    6513853.469   -2721719.644     373998.036
10 0 59738  56520.00000  0    6347968.490   -2960073.726    -960274.375
10 0 59738  56700.00000  0    5946830.460   -3083498.492   -2259424.589
10 0 59738  56880.00000  0    5328256.376   -3081621.526   -3475974.226
10 0 59738  57060.00000  0    4518180.619   -2949215.370   -4565529.884
10 0 59738  57240.00000  0    3549531.425   -2686567.091   -5488407.753
10 0 59738  57420.00000  0    2460849.614   -2299609.091   -6211056.940
10 0 59738  57600.00000  0    1294729.280   -1799812.140   -6707236.045
10 0 59738  57780.00000  0      96142.124   -1203846.088   -6958922.702
99
